STARLINK-2494           
1 48487U 21040BM  26068.66164607  .00011650  00000+0  40475-3 0  9991
2 48487  53.1620 194.1526 0001412  74.5162 285.5994 15.30208187266462
PHISAT 2                
1 60470U 24149C   26068.78834181  .00008925  00000+0  31421-3 0  9996
2 60470  97.3806 148.6498 0001175 168.6230 191.5037 15.29548631 86792
